1 41179U 15081A   16175.99143876  .00000004  00000-0  47473-4 0  9997,2 41179  47.0035 216.0257 0001485  20.7570 339.3402 14.43191093 26901
1 41179U 15081A   16177.16836936  .00000051  00000-0  61245-4 0  9999,2 41179  47.0022 210.5982 0001335  25.1558 334.9403 14.43191651 27071
1 41179U 15081A   16178.27606945 -.00000073  00000-0  24704-4 0  9991,2 41179  47.0016 205.4905 0001336  33.4453 326.6478 14.43191151 27232
1 41179U 15081A   16179.31453866 -.00000102  00000-0  16330-4 0  9998,2 41179  47.0019 200.7022 0001273  38.4861 321.6101 14.43191280 27388
1 41179U 15081A   16180.42223787  .00000217  00000-0  11032-3 0  9998,2 41179  47.0023 195.5931 0001251  43.5348 316.5651 14.43193061 27546
1 41179U 15081A   16180.49146863 +.00000196 +00000-0 +10397-3 0  9993,2 41179 047.0025 195.2741 0001247 043.1232 316.9737 14.43192991027558
1 41179U 15081A   16181.52993644  .00000163  00000-0  94270-4 0  9992,2 41179  47.0036 190.4871 0001220  49.3528 310.7448 14.43193546 27703
1 41179U 15081A   16183.05302245 -.00000010  00000-0  43287-4 0  9997,2 41179  47.0042 183.4640 0001188  54.9432 305.1562 14.43193521 27927
1 41179U 15081A   16184.16072015  .00000013  00000-0  50194-4 0  9996,2 41179  47.0034 178.3587 0001023  68.0968 292.0007 14.43193994 28089
1 41179U 15081A   16185.33764824  .00000254  00000-0  12118-3 0  9992,2 41179  47.0021 172.9321 0001037  74.1594 285.9403 14.43195767 28259
1 41179U 15081A   16186.37611283  .00000305  00000-0  13611-3 0  9993,2 41179  47.0027 168.1440 0000936  84.1763 275.9213 14.43196905 28400
1 41179U 15081A   16186.79149880 +.00000303 +00000-0 +13561-3 0  9990,2 41179 047.0031 166.2295 0000935 085.4805 274.6172 14.43197315028464
1 41179U 15081A   16187.76073388 -.00000030  00000-0  37356-4 0  9994,2 41179  47.0035 161.7610 0000921  91.2730 268.8248 14.43196231 28607
1 41179U 15081A   16189.00689336 -.00000158  00000-0 -34789-6 0  9990,2 41179  47.0021 156.0144 0000975  83.4028 276.6966 14.43195687 28780
1 41179U 15081A   16190.04535814 -.00000065  00000-0  27140-4 0  9994,2 41179  47.0025 151.2254 0001010  85.4528 274.6455 14.43196316 28939
1 41179U 15081A   16191.29151704 -.00000108  00000-0  14514-4 0  9993,2 41179  47.0043 145.4803 0001139  90.0243 270.0761 14.43196429 29118
1 41179U 15081A   16191.84536538 -.00000103 +00000-0 +16044-4 0  9991,2 41179 047.0049 142.9278 0001101 097.3823 262.7196 14.43196559029197
1 41179U 15081A   16192.88382990 -.00000057  00000-0  29603-4 0  9990,2 41179  47.0046 138.1407 0001130 111.8920 248.2101 14.43197029 29342
1 41179U 15081A   16194.12998647  .00000030  00000-0  55232-4 0  9998,2 41179  47.0057 132.3944 0001201 123.7618 236.3372 14.43197750 29520
1 41179U 15081A   16195.30691209  .00000090  00000-0  72905-4 0  9995,2 41179  47.0064 126.9693 0001264 133.7849 226.3131 14.43198544 29696
1 41179U 15081A   16196.13768681 -.00000015  00000-0  41819-4 0  9994,2 41179  47.0035 123.1446 0001179 147.8486 212.2466 14.43185665 29816
1 41179U 15081A   16197.17616003  .00000093  00000-0  73743-4 0  9995,2 41179  47.0033 118.3568 0001182 152.9667 207.1274 14.43185600 29962
1 41179U 15081A   16198.21463270  .00000026  00000-0  53967-4 0  9999,2 41179  47.0033 113.5692 0001238 158.6238 201.4694 14.43185898 30117
1 41179U 15081A   16199.39156834 -.00000007  00000-0  44225-4 0  9991,2 41179  47.0034 108.1430 0001304 164.4290 195.6629 14.43186139 30284
1 41179U 15081A   16199.87618881 -.00000007 +00000-0 +44104-4 0  9995,2 41179 047.0034 105.9086 0001337 166.9204 193.1710 14.43186261030352
1 41179U 15081A   16200.84542957 -.00000030 +00000-0 +37503-4 0  9996,2 41179 047.0035 101.4400 0001399 171.2253 188.8651 14.43186422030494
1 41179U 15081A   16202.09159607 -.00000026  00000-0  38555-4 0  9994,2 41179  47.0035  95.6948 0001477 176.3291 183.7599 14.43186788 30670
1 41179U 15081A   16203.19929918 -.00000020  00000-0  40468-4 0  9996,2 41179  47.0036  90.5879 0001544 180.9675 179.1201 14.43187170 30833
1 41179U 15081A   16204.30700207 -.00000030  00000-0  37411-4 0  9993,2 41179  47.0037  85.4809 0001616 185.6787 174.4074 14.43187428 30995
1 41179U 15081A   16204.86085345 -.00000021 +00000-0 +40145-4 0  9991,2 41179 047.0037 082.9274 0001666 187.8438 172.2416 14.43187612031076
1 41179U 15081A   16205.83009325 -.00000029  00000-0  37664-4 0  9993,2 41179  47.0038  78.4588 0001719 191.6112 168.4728 14.43187839 31216
1 41179U 15081A   16205.89932467 -.00000029 +00000-0 +37651-4 0  9997,2 41179 047.0038 078.1397 0001722 191.8652 168.2187 14.43187854031221
1 41179U 15081A   16207.07625848 -.00000053  00000-0  30543-4 0  9991,2 41179  47.0037  72.7136 0001789 196.1883 163.8939 14.43188060 31392
1 41179U 15081A   16208.25319205 -.00000068  00000-0  26363-4 0  9990,2 41179  47.0037  67.2874 0001857 200.7131 159.3673 14.43188276 31567
1 41179U 15081A   16208.94550587 -.00000062 +00000-0 +28031-4 0  9994,2 41179 047.0037 064.0954 0001912 202.8638 157.2157 14.43188427031661
1 41179U 15081A   16209.77628240 -.00000071  00000-0  25361-4 0  9991,2 41179  47.0037  60.2651 0001967 205.7033 154.3749 14.43188531 31788
1 41179U 15081A   16210.95321576 -.00000078  00000-0  23214-4 0  9997,2 41179  47.0038  54.8389 0002031 209.7125 150.3639 14.43188684 31957
1 41179U 15081A   16211.99168623 -.00000085  00000-0  21110-4 0  9995,2 41179  47.0038  50.0509 0002072 213.7375 146.3373 14.43188799 32101
1 41179U 15081A   16213.51477615 -.00000091  00000-0  19419-4 0  9995,2 41179  47.0040  43.0287 0002158 219.0643 141.0081 14.43188925 32324
1 41179U 15081A   16214.55324648 -.00000090  00000-0  19611-4 0  9990,2 41179  47.0041  38.2409 0002209 222.6080 137.4629 14.43189048 32479
1 41179U 15081A   16214.89940325 -.00000092 +00000-0 +19268-4 0  9993,2 41179 047.0041 036.6450 0002225 223.6241 136.4463 14.43189089032521
1 41179U 15081A   16215.79941072 -.00000102  00000-0  16047-4 0  9997,2 41179  47.0042  32.4956 0002276 226.4539 133.6152 14.43189178 32651
1 41179U 15081A   16215.86864207 -.00000094 +00000-0 +18693-4 0  9998,2 41179 047.0042 032.1765 0002277 226.6616 133.4074 14.43189236032662
1 41179U 15081A   16216.83788084 -.00000104  00000-0  15585-4 0  9993,2 41179  47.0042  27.7079 0002314 229.9950 130.0726 14.43189305 32809
1 41179U 15081A   16216.90711216 -.00000094 +00000-0 +18617-4 0  9991,2 41179 047.0042 027.3887 0002320 230.1688 129.8988 14.43189378032818
1 41179U 15081A   16217.87635090 -.00000100  00000-0  16878-4 0  9998,2 41179  47.0043  22.9201 0002361 233.3534 126.7128 14.43189442 32959
1 41179U 15081A   16218.91482080 -.00000089  00000-0  19895-4 0  9991,2 41179  47.0043  18.1324 0002408 236.6802 123.3847 14.43189639 33105
1 41179U 15081A   16220.50714111 -.00000086  00000-0  20796-4 0  9991,2 41179  47.0044  10.7910 0002468 241.8818 118.1812 14.43189907 33333
1 41179U 15081A   16220.85329770 -.00000084 +00000-0 +21430-4 0  9996,2 41179 047.0044 009.1952 0002474 243.0107 117.0520 14.43189969033380
1 41179U 15081A   16221.82253597 -.00000076  00000-0  23858-4 0  9994,2 41179  47.0045   4.7265 0002516 246.0203 114.0413 14.43190156 33520
1 41179U 15081A   16221.89176725 -.00000074 +00000-0 +24402-4 0  9992,2 41179 047.0045 004.4074 0002519 246.2444 113.8171 14.43190186033539
1 41179U 15081A   16222.86100552 -.00000066  00000-0  26761-4 0  9996,2 41179  47.0046 359.9388 0002547 249.4464 110.6143 14.43190366 33673
1 41179U 15081A   16224.38409391 -.00000057  00000-0  29577-4 0  9996,2 41179  47.0046 352.9168 0002581 254.4938 105.5657 14.43190710 33892
1 41179U 15081A   16224.79948160 -.00000055 +00000-0 +29928-4 0  9991,2 41179 047.0047 351.0018 0002583 255.7968 104.2624 14.43190812033956
1 41179U 15081A   16225.76871940 -.00000045 +00000-0 +32860-4 0  9998,2 41179 047.0047 346.5333 0002600 258.8638 101.1950 14.43191071034095
1 41179U 15081A   16226.80718838 -.00000040 +00000-0 +34366-4 0  9998,2 41179 047.0046 341.7457 0002625 262.1548 097.9033 14.43191300034249
1 41179U 15081A   16227.77642601 -.00000043 +00000-0 +33440-4 0  9994,2 41179 047.0046 337.2772 0002637 265.2816 094.7762 14.43191484034386
1 41179U 15081A   16228.12258225 -.00000043  00000-0  33472-4 0  9994,2 41179  47.0046 335.6813 0002646 266.4860  93.5717 14.43191569 34433
1 41179U 15081A   16229.43797580 -.00000050  00000-0  31654-4 0  9999,2 41179  47.0044 329.6169 0002667 270.5692  89.4882 14.43191848 34628
1 41179U 15081A   16230.47644426 -.00000046  00000-0  32730-4 0  9996,2 41179  47.0043 324.8292 0002676 273.9359  86.1215 14.43192075 34771
1 41179U 15081A   16231.72260624 -.00000033  00000-0  36653-4 0  9993,2 41179  47.0042 319.0839 0002682 278.0387  82.0188 14.43192391 34952
1 41179U 15081A   16233.45338644 -.00000043  00000-0  33442-4 0  9997,2 41179  47.0040 311.1043 0002667 283.6210  76.4373 14.43192735 35204
1 41179U 15081A   16234.49185432 -.00000053  00000-0  30732-4 0  9997,2 41179  47.0039 306.3166 0002660 287.0700  72.9888 14.43192926 35359
1 41179U 15081A   16234.63031672 -.00000052 +00000-0 +30863-4 0  9993,2 41179 047.0039 305.6783 0002657 287.5811 072.4778 14.43192957035379
1 41179U 15081A   16235.66878445 -.00000051  00000-0  31362-4 0  9998,2 41179  47.0037 300.8905 0002652 291.0180  69.0415 14.43193182 35522
1 41179U 15081A   16237.19187014 -.00000049  00000-0  31712-4 0  9999,2 41179  47.0034 293.8684 0002643 295.9018  64.1589 14.43193540 35747
1 41179U 15081A   16238.36879975 -.00000051  00000-0  31254-4 0  9997,2 41179  47.0032 288.4422 0002625 299.9242  60.1377 14.43193824 35913
1 41179U 15081A   16239.47649807 -.00000045  00000-0  32933-4 0  9997,2 41179  47.0029 283.3352 0002611 303.8848  56.1783 14.43194073 36078
1 41179U 15081A   16240.51496514 -.00000036  00000-0  35766-4 0  9996,2 41179  47.0027 278.5471 0002583 307.4987  52.5658 14.43194315 36223
1 41179U 15081A   16240.58419626 -.00000034 +00000-0 +36174-4 0  9994,2 41179 047.0027 278.2279 0002577 307.7161 052.3485 14.43194341036232
1 41179U 15081A   16241.55343204 -.00000029  00000-0  37797-4 0  9996,2 41179  47.0026 273.7591 0002545 311.2192  48.8468 14.43194582 36370
